NORAD_CAT_ID,OBJECT_NAME,OBJECT_TYPE,EPOCH,MEAN_MOTION,ECCENTRICITY,INCLINATION,RA_OF_ASC_NODE,ARG_OF_PERICENTER,MEAN_ANOMALY,BSTAR,MEAN_MOTION_DOT,MEAN_MOTION_DDOT,TLE_LINE0,TLE_LINE1,TLE_LINE2,SEMIMAJOR_AXIS,PERIOD,APOGEE,PERIGEE,DECAYED
55941.0,STARLINK-5914,PAYLOAD,2023-11-21 03:55:19,14.98332638,0.0002602,70.0004,241.3459,271.9772,88.1089,-7.4162e-06,-1.81e-06,0.0,0 STARLINK-5914,1 55941U 23037AD  23325.16341555 -.00000181  00000-0 -74162-5 0  9991,2 55941  70.0004 241.3459 0002602 271.9772  88.1089 14.98332638 38563,6950.185,96.107,573.858,570.241,0.0
55941.0,STARLINK-5914,PAYLOAD,2023-11-21 21:32:48,14.9832653,0.0002683,70.0003,239.4929,270.2479,89.8372,-2.8765e-05,-4.36e-06,0.0,0 STARLINK-5914,1 55941U 23037AD  23325.89777887 -.00000436  00000-0 -28765-4 0  9992,2 55941  70.0003 239.4929 0002683 270.2479  89.8372 14.98326530 38339,6950.204,96.107,573.933,570.204,0.0
55941.0,STARLINK-5914,PAYLOAD,2023-11-22 03:57:19,14.98330853,0.0002171,70.0012,238.8209,259.1038,100.9877,6.4162e-05,6.73e-06,0.0,0 STARLINK-5914,1 55941U 23037AD  23326.16481479  .00000673  00000-0  64162-4 0  9994,2 55941  70.0012 238.8209 0002171 259.1038 100.9877 14.98330853 38712,6950.19,96.107,573.564,570.546,0.0
55941.0,STARLINK-5914,PAYLOAD,2023-11-22 21:34:48,14.98328033,0.0002546,70.0011,236.9706,266.281,93.8058,3.1079e-06,-5.6e-07,0.0,0 STARLINK-5914,1 55941U 23037AD  23326.89917743 -.00000056  00000-0  31079-5 0  9990,2 55941  70.0011 236.9706 0002546 266.2810  93.8058 14.98328033 38487,6950.199,96.107,573.833,570.294,0.0
55941.0,STARLINK-5914,PAYLOAD,2023-11-23 03:59:21,14.98330032,0.0002357,70.0013,236.298,259.9611,100.1282,1.482e-05,8.4e-07,0.0,0 STARLINK-5914,1 55941U 23037AD  23327.16621600  .00000084  00000-0  14820-4 0  9999,2 55941  70.0013 236.2980 0002357 259.9611 100.1282 14.98330032 38869,6950.193,96.107,573.696,570.42,0.0
55941.0,STARLINK-5914,PAYLOAD,2023-11-23 20:00:42,14.9832143,0.0002779,70.0,234.6112,271.3984,88.6857,-4.8625e-05,-6.73e-06,0.0,0 STARLINK-5914,1 55941U 23037AD  23327.83382459 -.00000673  00000-0 -48625-4 0  9995,2 55941  70.0000 234.6112 0002779 271.3984  88.6857 14.98321430 38964,6950.219,96.108,574.016,570.153,0.0
55941.0,STARLINK-5914,PAYLOAD,2023-11-23 21:36:50,14.9830988,0.000261,70.0008,234.4442,262.2693,97.8169,0.00011195,1.242e-05,0.0,0 STARLINK-5914,1 55941U 23037AD  23327.90058646  .00001242  00000-0  11195-3 0  9993,2 55941  70.0008 234.4442 0002610 262.2693  97.8169 14.98309880 38633,6950.255,96.108,573.934,570.306,0.0
55941.0,STARLINK-5914,PAYLOAD,2023-11-24 04:01:23,14.9831029,0.0002322,70.0005,233.7715,275.0302,85.0591,-0.0001526,-1.912e-05,0.0,0 STARLINK-5914,1 55941U 23037AD  23328.16763715 -.00001912  00000-0 -15260-3 0  9995,2 55941  70.0005 233.7715 0002322 275.0302  85.0591 14.98310290 39012,6950.254,96.108,573.733,570.505,0.0
55941.0,STARLINK-5914,PAYLOAD,2023-11-24 21:38:52,14.98312454,0.0002824,70.0001,231.9198,270.8069,89.2767,-0.00011427,-1.455e-05,0.0,0 STARLINK-5914,1 55941U 23037AD  23328.90200049 -.00001455  00000-0 -11427-3 0  9996,2 55941  70.0001 231.9198 0002824 270.8069  89.2767 14.98312454 38781,6950.247,96.108,574.075,570.149,0.0
55941.0,STARLINK-5914,PAYLOAD,2023-11-25 04:03:24,14.98323273,0.0002864,69.9997,231.2462,274.259,85.8241,4.8749e-07,-8.7e-07,0.0,0 STARLINK-5914,1 55941U 23037AD  23329.16903321 -.00000087  00000-0  48749-6 0  9997,2 55941  69.9997 231.2462 0002864 274.2590  85.8241 14.98323273 39163,6950.214,96.107,574.069,570.088,0.0
55941.0,STARLINK-5914,PAYLOAD,2023-11-25 21:40:51,14.98345612,0.0002341,70.0002,229.3943,264.0574,96.0319,0.00035621,4.161e-05,0.0,0 STARLINK-5914,1 55941U 23037AD  23329.90336835  .00004161  00000-0  35621-3 0  9997,2 55941  70.0002 229.3943 0002341 264.0574  96.0319 14.98345612 38939,6950.145,96.106,573.637,570.383,0.0
55941.0,STARLINK-5914,PAYLOAD,2023-11-26 02:29:14,14.9835121,0.0002186,70.0008,228.8905,267.3412,92.7497,0.00041679,4.886e-05,0.0,0 STARLINK-5914,1 55941U 23037AD  23330.10364267  .00004886  00000-0  41679-3 0  9995,2 55941  70.0008 228.8905 0002186 267.3412  92.7497 14.98351210 39304,6950.127,96.106,573.512,570.473,0.0
55941.0,STARLINK-5914,PAYLOAD,2023-11-26 20:06:46,14.98311073,0.0002767,70.0002,227.0386,264.9381,95.1462,-7.0119e-05,-9.29e-06,0.0,0 STARLINK-5914,1 55941U 23037AD  23330.83803779 -.00000929  00000-0 -70119-4 0  9999,2 55941  70.0002 227.0386 0002767 264.9381  95.1462 14.98311073 39419,6950.251,96.108,574.04,570.193,0.0
55941.0,STARLINK-5914,PAYLOAD,2023-11-26 21:42:54,14.98312257,0.0002837,69.9998,226.87,265.8625,94.221,-6.5867e-05,-8.78e-06,0.0,0 STARLINK-5914,1 55941U 23037AD  23330.90479733 -.00000878  00000-0 -65867-4 0  9993,2 55941  69.9998 226.8700 0002837 265.8625  94.2210 14.98312257 39085,6950.248,96.108,574.085,570.141,0.0
55941.0,STARLINK-5914,PAYLOAD,2023-11-27 04:07:26,14.98314993,0.0002645,70.0001,226.1967,264.6285,95.4572,-2.7655e-05,-4.23e-06,0.0,0 STARLINK-5914,1 55941U 23037AD  23331.17183755 -.00000423  00000-0 -27655-4 0  9998,2 55941  70.0001 226.1967 0002645 264.6285  95.4572 14.98314993 39125,6950.239,96.108,573.943,570.266,0.0
55941.0,STARLINK-5914,PAYLOAD,2023-11-27 20:08:46,14.98343377,0.0002703,70.0023,224.5171,269.2812,90.8038,-0.00016247,-2.032e-05,0.0,0 STARLINK-5914,1 55941U 23037AD  23331.83942205 -.00002032  00000-0 -16247-3 0  9996,2 55941  70.0023 224.5171 0002703 269.2812  90.8038 14.98343377 39562,6950.152,96.106,573.895,570.138,0.0
55941.0,STARLINK-5914,PAYLOAD,2023-11-27 21:44:53,14.98347057,0.0002231,70.002,224.3469,252.3299,107.7616,-0.00014076,-1.773e-05,0.0,0 STARLINK-5914,1 55941U 23037AD  23331.90617808 -.00001773  00000-0 -14076-3 0  9991,2 55941  70.0020 224.3469 0002231 252.3299 107.7616 14.98347057 39238,6950.14,96.106,573.556,570.455,0.0
55941.0,STARLINK-5914,PAYLOAD,2023-11-28 02:33:17,14.98360327,0.000213,70.0015,223.8417,276.3348,83.7569,-0.00029736,-3.642e-05,0.0,0 STARLINK-5914,1 55941U 23037AD  23332.10645278 -.00003642  00000-0 -29736-3 0  9992,2 55941  70.0015 223.8417 0002130 276.3348  83.7569 14.98360327 39604,6950.099,96.105,573.444,570.484,0.0
55941.0,STARLINK-5914,PAYLOAD,2023-11-28 20:10:46,14.98322356,0.0002695,70.0008,221.9895,259.434,100.6516,0.00019048,2.18e-05,0.0,0 STARLINK-5914,1 55941U 23037AD  23332.84081755  .00002180  00000-0  19048-3 0  9996,2 55941  70.0008 221.9895 0002695 259.4340 100.6516 14.98322356 39718,6950.217,96.107,573.955,570.208,0.0
55941.0,STARLINK-5914,PAYLOAD,2023-11-29 02:35:18,14.98328657,0.0002337,70.0004,221.315,262.178,97.9114,0.00024401,2.82e-05,0.0,0 STARLINK-5914,1 55941U 23037AD  23333.10785392  .00002820  00000-0  24401-3 0  9994,2 55941  70.0004 221.3150 0002337 262.1780  97.9114 14.98328657 39750,6950.197,96.107,573.686,570.438,0.0
55941.0,STARLINK-5914,PAYLOAD,2023-11-30 02:37:19,14.98335296,0.0002433,70.0006,218.7907,256.5235,103.5653,-3.7525e-05,-5.41e-06,0.0,0 STARLINK-5914,1 55941U 23037AD  23334.10925523 -.00000541  00000-0 -37525-4 0  9999,2 55941  70.0006 218.7907 0002433 256.5235 103.5653 14.98335296 39907,6950.177,96.107,573.732,570.351,0.0
55941.0,STARLINK-5914,PAYLOAD,2023-12-01 02:39:20,14.98329357,0.0002448,70.0001,216.2658,260.9669,99.1213,-8.988e-05,-1.165e-05,0.0,0 STARLINK-5914,1 55941U 23037AD  23335.11065915 -.00001165  00000-0 -89880-4 0  9995,2 55941  70.0001 216.2658 0002448 260.9669  99.1213 14.98329357 40055,6950.195,96.107,573.761,570.358,0.0
55941.0,STARLINK-5914,PAYLOAD,2023-12-01 20:16:48,14.98333433,0.0002686,70.0003,214.4139,265.6088,94.4764,0.00011028,1.223e-05,0.0,0 STARLINK-5914,1 55941U 23037AD  23335.84501019  .00001223  00000-0  11028-3 0  9996,2 55941  70.0003 214.4139 0002686 265.6088  94.4764 14.98333433 40163,6950.182,96.107,573.914,570.18,0.0
55941.0,STARLINK-5914,PAYLOAD,2023-12-01 21:52:56,14.98335235,0.0002635,69.9999,214.2454,262.2742,97.8117,0.00011603,1.292e-05,0.0,0 STARLINK-5914,1 55941U 23037AD  23335.91176851  .00001292  00000-0  11603-3 0  9991,2 55941  69.9999 214.2454 0002635 262.2742  97.8117 14.98335235 39839,6950.177,96.107,573.873,570.21,0.0
55941.0,STARLINK-5914,PAYLOAD,2023-12-02 01:05:12,14.98345221,0.0002515,69.9998,213.9095,251.421,108.6676,0.00017831,2.036e-05,0.0,0 STARLINK-5914,1 55941U 23037AD  23336.04527897  .00002036  00000-0  17831-3 0  9992,2 55941  69.9998 213.9095 0002515 251.4210 108.6676 14.98345221 40190,6950.146,96.106,573.759,570.263,0.0
55941.0,STARLINK-5914,PAYLOAD,2023-12-02 20:18:50,14.98320852,0.0002934,69.9987,211.8894,260.4969,99.5858,-8.7019e-05,-1.131e-05,0.0,0 STARLINK-5914,1 55941U 23037AD  23336.84642013 -.00001131  00000-0 -87019-4 0  9991,2 55941  69.9987 211.8894 0002934 260.4969  99.5858 14.98320852 40315,6950.221,96.108,574.125,570.047,0.0
55941.0,STARLINK-5914,PAYLOAD,2023-12-02 21:54:58,14.98323951,0.000276,69.9994,211.722,244.4196,115.6678,-3.7347e-05,-5.38e-06,0.0,0 STARLINK-5914,1 55941U 23037AD  23336.91317694 -.00000538  00000-0 -37347-4 0  9992,2 55941  69.9994 211.7220 0002760 244.4196 115.6678 14.98323951 39980,6950.212,96.107,573.995,570.158,0.0
55941.0,STARLINK-5914,PAYLOAD,2023-12-03 01:07:15,14.9831743,0.0002643,69.9994,211.3848,253.0245,107.0625,-0.00010058,-1.292e-05,0.0,0 STARLINK-5914,1 55941U 23037AD  23337.04670393 -.00001292  00000-0 -10058-3 0  9992,2 55941  69.9994 211.3848 0002643 253.0245 107.0625 14.98317430 40000,6950.232,96.108,573.934,570.26,0.0
55941.0,STARLINK-5914,PAYLOAD,2023-12-03 20:20:51,14.98327824,0.0002628,69.9993,209.3655,254.148,105.939,-0.00018518,-2.302e-05,0.0,0 STARLINK-5914,1 55941U 23037AD  23337.84782389 -.00002302  00000-0 -18518-3 0  9991,2 55941  69.9993 209.3655 0002628 254.1480 105.9390 14.98327824 40462,6950.2,96.107,573.891,570.238,0.0
55941.0,STARLINK-5914,PAYLOAD,2023-12-04 01:09:16,14.98328696,0.0002575,69.9992,208.86,253.3674,106.7202,-0.00016168,-2.021e-05,0.0,0 STARLINK-5914,1 55941U 23037AD  23338.04810255 -.00002021  00000-0 -16168-3 0  9995,2 55941  69.9992 208.8600 0002575 253.3674 106.7202 14.98328696 40157,6950.197,96.107,573.852,570.272,0.0
